{"type":"FeatureCollection","features":[{"type":"Feature","properties":{"REGION":"Cagayan Valley (Region II)"},"geometry":{"type":"MultiPolygon","coordinates":[[[[122.2,18.5],[122.1,18.5],[122.2,18.5],[122.1,18.5],[122.2,18.5],[122.1,18.5],[122.1,18.6],[122.2,18.6],[122.2,18.5]]],[[[121.1,18.6],[121.3,18.6],[121.3,18.5],[121.4,18.5],[121.4,18.4],[121.5,18.4],[121.6,18.4],[121.6,18.3],[121.6,18.4],[121.6,18.3],[121.7,18.3],[121.6,18.3],[121.7,18.3],[121.6,18.3],[121.6,18.4],[121.7,18.4],[121.7,18.3],[121.8,18.3],[121.9,18.3],[121.8,18.3],[121.9,18.3],[122.1,18.3],[122.1,18.4],[122.1,18.5],[122.2,18.5],[122.1,18.5],[122.2,18.5],[122.2,18.4],[122.3,18.4],[122.3,18.3],[122.3,18.2],[122.2,18.2],[122.2,18.1],[122.2,18],[122.2,17.9],[122.2,17.8],[122.1,17.8],[122.2,17.8],[122.1,17.8],[122.2,17.8],[122.1,17.8],[122.1,17.7],[122.2,17.7],[122.2,17.6],[122.2,17.4],[122.3,17.4],[122.2,17.4],[122.3,17.4],[122.2,17.4],[122.3,17.4],[122.3,17.3],[122.4,17.3],[122.4,17.2],[122.4,17.3],[122.4,17.2],[122.4,17.1],[122.5,17.1],[122.4,17.1],[122.5,17.1],[122.4,17.1],[122.5,17.1],[122.5,17],[122.5,16.9],[122.4,16.9],[122.4,16.7],[122.3,16.7],[122.3,16.6],[122.3,16.5],[122.2,16.5],[122,16.5],[122,16.4],[121.9,16.3],[121.8,16.2],[121.7,16.1],[121.6,16.1],[121.6,16],[121.5,16],[121.5,15.9],[121.4,15.9],[121.4,15.8],[121.3,15.8],[121.2,15.9],[121.2,16],[121.2,16.1],[121.1,16.1],[120.9,16.1],[120.8,16.2],[120.8,16.3],[120.9,16.3],[120.9,16.5],[120.9,16.6],[121.1,16.6],[121.2,16.6],[121.2,16.7],[121.3,16.7],[121.3,16.8],[121.5,16.8],[121.5,16.9],[121.6,16.9],[121.6,17.1],[121.6,17.2],[121.5,17.3],[121.6,17.3],[121.6,17.4],[121.7,17.4],[121.7,17.5],[121.6,17.5],[121.6,17.6],[121.5,17.6],[121.5,17.7],[121.4,17.7],[121.4,17.8],[121.3,17.8],[121.3,17.9],[121.4,17.9],[121.4,18],[121.5,18.1],[121.5,18.3],[121.4,18.3],[121.4,18.4],[121.2,18.4],[121.1,18.5],[121,18.5],[121,18.4],[121,18.5],[121,18.6],[121.1,18.6],[121,18.6],[121.1,18.6]]],[[[121.4,18.9],[121.4,18.8],[121.3,18.8],[121.3,18.9],[121.4,18.9]]],[[[121.9,18.9],[121.9,18.8],[121.8,18.8],[121.8,18.9],[121.9,18.9],[121.8,18.9],[121.9,18.9],[121.9,19],[122,19],[122,18.9],[121.9,18.9]]],[[[121.2,19.1],[121.3,19.1],[121.2,19.1],[121.3,19.1],[121.3,19],[121.2,19],[121.2,19.1]]],[[[121.4,19.4],[121.5,19.4],[121.5,19.3],[121.4,19.3],[121.4,19.4]]],[[[122,19.6],[122,19.5],[121.9,19.5],[121.9,19.6],[122,19.6]]],[[[121.9,20.4],[121.9,20.3],[121.8,20.3],[121.8,20.4],[121.9,20.4]]],[[[122,20.4],[122,20.3],[121.9,20.3],[121.9,20.4],[122,20.4]]],[[[121.9,20.8],[121.9,20.7],[121.8,20.7],[121.8,20.8],[121.9,20.8]]]]}}]}
